#Pass ID: 20250128_221757_FENGYUN 3G
#Satellite: FENGYUN 3G
#Configuration: FENGYUN 3G
#Start time: 2025-01-28 22:18:02.121493

#LorettStation: 1.0.0 05.05.2024
#Station: Regia
#Location: 37.494653 lon 55.929028 lat
#TLE: 1 56232U 23055A   25027.50006322  .00042267  00000+0  67647-3 0  9990
#TLE: 2 56232  49.9958  73.7509 0019536 283.2767  76.6021 15.52441058101407

#Time	Az	El	Level	SNR
#Closed at: 2025-01-28 22:17:57.122646